{"type": "FeatureCollection", "features": [ {"type": "Feature", "properties": {"norad_id": 41175, "name": "GSAT0208 (GALILEO 11)", "group": "galileo", "lat": 52.663763638274645, "lon": -136.75228873417757, "alt_km": 23216.423845358804, "timestamp": "2025-12-01T03:58:49.219125+00:00", "meta": {"OBJECT_NAME": "GSAT0208 (GALILEO 11)", "OBJECT_ID": "2015-079B", "EPOCH": "2025-11-30T09:46:10.644960", "MEAN_MOTION": 1.70474193, "ECCENTRICITY": 0.00018872, "INCLINATION": 55.7038, "RA_OF_ASC_NODE": 106.7167, "ARG_OF_PERICENTER": 11.7228, "MEAN_ANOMALY": 348.2564, "EPHEMERIS_TYPE": 0, "CLASSIFICATION_TYPE": "U", "NORAD_CAT_ID": 41175, "ELEMENT_SET_NO": 999, "REV_AT_EPOCH": 6180, "BSTAR": 0, "MEAN_MOTION_DOT": 4.8e-07, "MEAN_MOTION_DDOT": 0, "GROUP": "galileo"}, "tle": {"line1": "1 41175U 15079B   25334.40706765  .00000048  00000+0  00000+0 0  9992", "line2": "2 41175  55.7038 106.7167 0001887  11.7228 348.2564  1.70474193 61804"}}, "geometry": {"type": "Point", "coordinates": [-136.75228873417757, 52.663763638274645]}}, {"type": "Feature", "properties": {"norad_id": 41549, "name": "GSAT0211 (GALILEO 14)", "group": "galileo", "lat": 23.941890934632077, "lon": -114.86859366534378, "alt_km": 23209.403665577378, "timestamp": "2025-12-01T03:58:49.219141+00:00", "meta": {"OBJECT_NAME": "GSAT0211 (GALILEO 14)", "OBJECT_ID": "2016-030A", "EPOCH": "2025-11-28T18:30:37.119744", "MEAN_MOTION": 1.70472998, "ECCENTRICITY": 0.00037617, "INCLINATION": 55.1573, "RA_OF_ASC_NODE": 227.2083, "ARG_OF_PERICENTER": 3.3414, "MEAN_ANOMALY": 356.7341, "EPHEMERIS_TYPE": 0, "CLASSIFICATION_TYPE": "U", "NORAD_CAT_ID": 41549, "ELEMENT_SET_NO": 999, "REV_AT_EPOCH": 5925, "BSTAR": 0, "MEAN_MOTION_DOT": 2.6e-07, "MEAN_MOTION_DDOT": 0, "GROUP": "galileo"}, "tle": {"line1": "1 41549U 16030A   25332.77126296  .00000026  00000+0  00000+0 0  9994", "line2": "2 41549  55.1573 227.2083 0003761   3.3414 356.7341  1.70472998 59254"}}, "geometry": {"type": "Point", "coordinates": [-114.86859366534378, 23.941890934632077]}}, {"type": "Feature", "properties": {"norad_id": 41550, "name": "GSAT0210 (GALILEO 13)", "group": "galileo", "lat": -40.05441149407519, "lon": 82.92791807107555, "alt_km": 23223.305010024287, "timestamp": "2025-12-01T03:58:49.219152+00:00", "meta": {"OBJECT_NAME": "GSAT0210 (GALILEO 13)", "OBJECT_ID": "2016-030B", "EPOCH": "2025-11-29T00:41:21.723360", "MEAN_MOTION": 1.70473428, "ECCENTRICITY": 0.00012825, "INCLINATION": 55.1566, "RA_OF_ASC_NODE": 227.1992, "ARG_OF_PERICENTER": 243.2248, "MEAN_ANOMALY": 116.8349, "EPHEMERIS_TYPE": 0, "CLASSIFICATION_TYPE": "U", "NORAD_CAT_ID": 41550, "ELEMENT_SET_NO": 999, "REV_AT_EPOCH": 5925, "BSTAR": 0, "MEAN_MOTION_DOT": 2.6e-07, "MEAN_MOTION_DDOT": 0, "GROUP": "galileo"}, "tle": {"line1": "1 41550U 16030B   25333.02872365  .00000026  00000+0  00000+0 0  9990", "line2": "2 41550  55.1566 227.1992 0001282 243.2248 116.8349  1.70473428 59254"}}, "geometry": {"type": "Point", "coordinates": [82.92791807107555, -40.05441149407519]}}, {"type": "Feature", "properties": {"norad_id": 41859, "name": "GSAT0207 (GALILEO 15)", "group": "galileo", "lat": 45.91300593844951, "lon": 152.03348963499687, "alt_km": 23217.208341473954, "timestamp": "2025-12-01T03:58:49.219169+00:00", "meta": {"OBJECT_NAME": "GSAT0207 (GALILEO 15)", "OBJECT_ID": "2016-069A", "EPOCH": "2025-11-30T11:31:32.297088", "MEAN_MOTION": 1.70474248, "ECCENTRICITY": 0.000206, "INCLINATION": 55.375, "RA_OF_ASC_NODE": 106.5899, "ARG_OF_PERICENTER": 325.7449, "MEAN_ANOMALY": 34.2162, "EPHEMERIS_TYPE": 0, "CLASSIFICATION_TYPE": "U", "NORAD_CAT_ID": 41859, "ELEMENT_SET_NO": 999, "REV_AT_EPOCH": 5601, "BSTAR": 0, "MEAN_MOTION_DOT": 4.7e-07, "MEAN_MOTION_DDOT": 0, "GROUP": "galileo"}, "tle": {"line1": "1 41859U 16069A   25334.48023492  .00000047  00000+0  00000+0 0  9997", "line2": "2 41859  55.3750 106.5899 0002060 325.7449  34.2162  1.70474248 56011"}}, "geometry": {"type": "Point", "coordinates": [152.03348963499687, 45.91300593844951]}}, {"type": "Feature", "properties": {"norad_id": 41860, "name": "GSAT0212 (GALILEO 16)", "group": "galileo", "lat": 23.771746321479437, "lon": -91.16632956191421, "alt_km": 23222.066405522302, "timestamp": "2025-12-01T03:58:49.219180+00:00", "meta": {"OBJECT_NAME": "GSAT0212 (GALILEO 16)", "OBJECT_ID": "2016-069B", "EPOCH": "2025-11-29T03:51:29.490336", "MEAN_MOTION": 1.70474484, "ECCENTRICITY": 0.0002283, "INCLINATION": 55.3717, "RA_OF_ASC_NODE": 106.6219, "ARG_OF_PERICENTER": 36.1467, "MEAN_ANOMALY": 323.8485, "EPHEMERIS_TYPE": 0, "CLASSIFICATION_TYPE": "U", "NORAD_CAT_ID": 41860, "ELEMENT_SET_NO": 999, "REV_AT_EPOCH": 5624, "BSTAR": 0, "MEAN_MOTION_DOT": 5.3e-07, "MEAN_MOTION_DDOT": 0, "GROUP": "galileo"}, "tle": {"line1": "1 41860U 16069B   25333.16075799  .00000053  00000+0  00000+0 0  9997", "line2": "2 41860  55.3717 106.6219 0002283  36.1467 323.8485  1.70474484 56245"}}, "geometry": {"type": "Point", "coordinates": [-91.16632956191421, 23.771746321479437]}}, {"type": "Feature", "properties": {"norad_id": 41861, "name": "GSAT0213 (GALILEO 17)", "group": "galileo", "lat": -52.639947396268134, "lon": 41.774347974300234, "alt_km": 23222.005298747208, "timestamp": "2025-12-01T03:58:49.219191+00:00", "meta": {"OBJECT_NAME": "GSAT0213 (GALILEO 17)", "OBJECT_ID": "2016-069C", "EPOCH": "2025-11-28T08:31:27.530400", "MEAN_MOTION": 1.70474759, "ECCENTRICITY": 0.00019722, "INCLINATION": 55.3734, "RA_OF_ASC_NODE": 106.6518, "ARG_OF_PERICENTER": 283.8228, "MEAN_ANOMALY": 76.1363, "EPHEMERIS_TYPE": 0, "CLASSIFICATION_TYPE": "U", "NORAD_CAT_ID": 41861, "ELEMENT_SET_NO": 999, "REV_AT_EPOCH": 5609, "BSTAR": 0, "MEAN_MOTION_DOT": 5.4e-07, "MEAN_MOTION_DDOT": 0, "GROUP": "galileo"}, "tle": {"line1": "1 41861U 16069C   25332.35517975  .00000054  00000+0  00000+0 0  9996", "line2": "2 41861  55.3734 106.6518 0001972 283.8228  76.1363  1.70474759 56098"}}, "geometry": {"type": "Point", "coordinates": [41.774347974300234, -52.639947396268134]}}, {"type": "Feature", "properties": {"norad_id": 41862, "name": "GSAT0214 (GALILEO 18)", "group": "galileo", "lat": -12.633184600721515, "lon": -64.54735271450207, "alt_km": 23224.32586560547, "timestamp": "2025-12-01T03:58:49.219202+00:00", "meta": {"OBJECT_NAME": "GSAT0214 (GALILEO 18)", "OBJECT_ID": "2016-069D", "EPOCH": "2025-11-29T16:11:01.864032", "MEAN_MOTION": 1.70474561, "ECCENTRICITY": 0.00010374, "INCLINATION": 55.3728, "RA_OF_ASC_NODE": 106.6081, "ARG_OF_PERICENTER": 291.61, "MEAN_ANOMALY": 68.3572, "EPHEMERIS_TYPE": 0, "CLASSIFICATION_TYPE": "U", "NORAD_CAT_ID": 41862, "ELEMENT_SET_NO": 999, "REV_AT_EPOCH": 5624, "BSTAR": 0, "MEAN_MOTION_DOT": 5.1e-07, "MEAN_MOTION_DDOT": 0, "GROUP": "galileo"}, "tle": {"line1": "1 41862U 16069D   25333.67432713  .00000051  00000+0  00000+0 0  9996", "line2": "2 41862  55.3728 106.6081 0001037 291.6100  68.3572  1.70474561 56248"}}, "geometry": {"type": "Point", "coordinates": [-64.54735271450207, -12.633184600721515]}}, {"type": "Feature", "properties": {"norad_id": 43055, "name": "GSAT0215 (GALILEO 19)", "group": "galileo", "lat": -52.30597378488953, "lon": 111.230077500833, "alt_km": 23225.3126563192, "timestamp": "2025-12-01T03:58:49.219229+00:00", "meta": {"OBJECT_NAME": "GSAT0215 (GALILEO 19)", "OBJECT_ID": "2017-079A", "EPOCH": "2025-11-29T13:52:03.216864", "MEAN_MOTION": 1.70473718, "ECCENTRICITY": 0.0001588, "INCLINATION": 55.1353, "RA_OF_ASC_NODE": 227.0004, "ARG_OF_PERICENTER": 310.5234, "MEAN_ANOMALY": 49.536, "EPHEMERIS_TYPE": 0, "CLASSIFICATION_TYPE": "U", "NORAD_CAT_ID": 43055, "ELEMENT_SET_NO": 999, "REV_AT_EPOCH": 4958, "BSTAR": 0, "MEAN_MOTION_DOT": 2.7e-07, "MEAN_MOTION_DDOT": 0, "GROUP": "galileo"}, "tle": {"line1": "1 43055U 17079A   25333.57781501  .00000027  00000+0  00000+0 0  9998", "line2": "2 43055  55.1353 227.0004 0001588 310.5234  49.5360  1.70473718 49587"}}, "geometry": {"type": "Point", "coordinates": [111.230077500833, -52.30597378488953]}}, {"type": "Feature", "properties": {"norad_id": 43056, "name": "GSAT0216 (GALILEO 20)", "group": "galileo", "lat": 52.73198145981557, "lon": -66.85720390355331, "alt_km": 23220.682693779552, "timestamp": "2025-12-01T03:58:49.219240+00:00", "meta": {"OBJECT_NAME": "GSAT0216 (GALILEO 20)", "OBJECT_ID": "2017-079B", "EPOCH": "2025-11-29T06:46:51.113856", "MEAN_MOTION": 1.70473865, "ECCENTRICITY": 0.00027653, "INCLINATION": 55.1352, "RA_OF_ASC_NODE": 227.0086, "ARG_OF_PERICENTER": 311.1377, "MEAN_ANOMALY": 48.9116, "EPHEMERIS_TYPE": 0, "CLASSIFICATION_TYPE": "U", "NORAD_CAT_ID": 43056, "ELEMENT_SET_NO": 999, "REV_AT_EPOCH": 4959, "BSTAR": 0, "MEAN_MOTION_DOT": 2.7e-07, "MEAN_MOTION_DDOT": 0, "GROUP": "galileo"}, "tle": {"line1": "1 43056U 17079B   25333.28253604  .00000027  00000+0  00000+0 0  9995", "line2": "2 43056  55.1352 227.0086 0002765 311.1377  48.9116  1.70473865 49596"}}, "geometry": {"type": "Point", "coordinates": [-66.85720390355331, 52.73198145981557]}}, {"type": "Feature", "properties": {"norad_id": 43057, "name": "GSAT0217 (GALILEO 21)", "group": "galileo", "lat": -45.09198556874883, "lon": -177.346981381874, "alt_km": 23221.199234286385, "timestamp": "2025-12-01T03:58:49.219251+00:00", "meta": {"OBJECT_NAME": "GSAT0217 (GALILEO 21)", "OBJECT_ID": "2017-079C", "EPOCH": "2025-11-29T12:04:41.145600", "MEAN_MOTION": 1.70473704, "ECCENTRICITY": 0.00027563, "INCLINATION": 55.1326, "RA_OF_ASC_NODE": 227.0006, "ARG_OF_PERICENTER": 340.6935, "MEAN_ANOMALY": 19.3693, "EPHEMERIS_TYPE": 0, "CLASSIFICATION_TYPE": "U", "NORAD_CAT_ID": 43057, "ELEMENT_SET_NO": 999, "REV_AT_EPOCH": 4958, "BSTAR": 0, "MEAN_MOTION_DOT": 2.7e-07, "MEAN_MOTION_DDOT": 0, "GROUP": "galileo"}, "tle": {"line1": "1 43057U 17079C   25333.50325400  .00000027  00000+0  00000+0 0  9995", "line2": "2 43057  55.1326 227.0006 0002756 340.6935  19.3693  1.70473704 49580"}}, "geometry": {"type": "Point", "coordinates": [-177.346981381874, -45.09198556874883]}}]}